{
    "links": {
        "self": "http://www.neowsapp.com/rest/v1/neo/3843678?api_key=iIulBulltgU6a56xZRHN4H3l9WmuAYTsLGpBGhQ2"
    },
    "id": "3843678",
    "neo_reference_id": "3843678",
    "name": "(2019 QP5)",
    "designation": "2019 QP5",
    "nasa_jpl_url": "http://ssd.jpl.nasa.gov/sbdb.cgi?sstr=3843678",
    "absolute_magnitude_h": 25.0,
    "estimated_diameter": {
        "kilometers": {
            "estimated_diameter_min": 0.02658,
            "estimated_diameter_max": 0.0594346868
        },
        "meters": {
            "estimated_diameter_min": 26.58,
            "estimated_diameter_max": 59.4346868419
        },
        "miles": {
            "estimated_diameter_min": 0.0165160412,
            "estimated_diameter_max": 0.0369309908
        },
        "feet": {
            "estimated_diameter_min": 87.2047272,
            "estimated_diameter_max": 194.9956979785
        }
    },
    "is_potentially_hazardous_asteroid": false,
    "close_approach_data": [
        {
            "close_approach_date": "2017-09-16",
            "close_approach_date_full": "2017-Sep-16 00:13",
            "epoch_date_close_approach": 1505520780000,
            "relative_velocity": {
                "kilometers_per_second": "8.3882491945",
                "kilometers_per_hour": "30197.6971001418",
                "miles_per_hour": "18763.6746231409"
            },
            "miss_distance": {
                "astronomical": "0.161315128",
                "lunar": "62.751584792",
                "kilometers": "24132399.54757736",
                "miles": "14995177.743233168"
            },
            "orbiting_body": "Earth"
        },
        {
            "close_approach_date": "2019-09-21",
            "close_approach_date_full": "2019-Sep-21 14:54",
            "epoch_date_close_approach": 1569077640000,
            "relative_velocity": {
                "kilometers_per_second": "6.8968053866",
                "kilometers_per_hour": "24828.4993917265",
                "miles_per_hour": "15427.4639692647"
            },
            "miss_distance": {
                "astronomical": "0.0970242724",
                "lunar": "37.7424419636",
                "kilometers": "14514624.489339788",
                "miles": "9018969.4425055544"
            },
            "orbiting_body": "Earth"
        },
        {
            "close_approach_date": "2021-09-25",
            "close_approach_date_full": "2021-Sep-25 19:02",
            "epoch_date_close_approach": 1632596520000,
            "relative_velocity": {
                "kilometers_per_second": "6.5498790865",
                "kilometers_per_hour": "23579.5647112816",
                "miles_per_hour": "14651.4245285183"
            },
            "miss_distance": {
                "astronomical": "0.1190523753",
                "lunar": "46.3113739917",
                "kilometers": "17809981.763320611",
                "miles": "11066609.5022259918"
            },
            "orbiting_body": "Earth"
        }
    ],
    "orbital_data": {
        "orbit_id": "2",
        "orbit_determination_date": "2019-09-05 05:55:14",
        "first_observation_date": "2019-08-28",
        "last_observation_date": "2019-09-05",
        "data_arc_in_days": 8,
        "observations_used": 22,
        "orbit_uncertainty": "8",
        "minimum_orbit_intersection": ".0932381",
        "jupiter_tisserand_invariant": "4.291",
        "epoch_osculation": "2458725.5",
        "eccentricity": ".3188403009422963",
        "semi_major_axis": "1.595931038229409",
        "inclination": "10.87660325740142",
        "ascending_node_longitude": "173.1359272025081",
        "orbital_period": "736.4098833854634",
        "perihelion_distance": "1.087083905717193",
        "perihelion_argument": "199.9182508897535",
        "aphelion_distance": "2.104778170741625",
        "perihelion_time": "2458761.547658303142",
        "mean_anomaly": "342.377807139861",
        "mean_motion": ".4888581863472398",
        "equinox": "J2000",
        "orbit_class": {
            "orbit_class_type": "AMO",
            "orbit_class_description": "Near-Earth asteroid orbits similar to that of 1221 Amor",
            "orbit_class_range": "1.017 AU < q (perihelion) < 1.3 AU"
        }
    },
    "is_sentry_object": false
}